[{"OBJECT_NAME":"STARLINK-4477","OBJECT_ID":"2022-101V","EPOCH":"2026-03-09T08:56:54.072384","MEAN_MOTION":15.0882886,"ECCENTRICITY":0.00015088,"INCLINATION":53.2174,"RA_OF_ASC_NODE":55.072,"ARG_OF_PERICENTER":89.1794,"MEAN_ANOMALY":270.9371,"EPHEMERIS_TYPE":0,"CLASSIFICATION_TYPE":"U","NORAD_CAT_ID":53546,"ELEMENT_SET_NO":999,"REV_AT_EPOCH":19640,"BSTAR":8.4933405e-5,"MEAN_MOTION_DOT":1.064e-5,"MEAN_MOTION_DDOT":0},{"OBJECT_NAME":"APEX R\/B","OBJECT_ID":"1994-046B","EPOCH":"2026-03-09T21:22:00.361344","MEAN_MOTION":14.28228355,"ECCENTRICITY":0.06427603,"INCLINATION":69.9225,"RA_OF_ASC_NODE":359.7806,"ARG_OF_PERICENTER":191.622,"MEAN_ANOMALY":166.9456,"EPHEMERIS_TYPE":0,"CLASSIFICATION_TYPE":"U","NORAD_CAT_ID":23198,"ELEMENT_SET_NO":999,"REV_AT_EPOCH":53288,"BSTAR":0.00062123339,"MEAN_MOTION_DOT":0.00017491,"MEAN_MOTION_DDOT":0}]
